NAVSTAR 48 (USA 151)    
1 26407U 00040A   26181.49491201  .00000069  00000+0  00000+0 0  9994
2 26407  54.8501 214.6336 0120827 302.5859 229.8311  2.00557854190216
NAVSTAR 51 (USA 166)    
1 27663U 03005A   26181.67787838  .00000069  00000+0  00000+0 0  9997
2 27663  54.8806 214.4327 0148061  53.1123  27.5268  2.00559915171583
NAVSTAR 54 (USA 177)    
1 28190U 04009A   26180.89981257 -.00000024  00000+0  00000+0 0  9994
2 28190  54.8190 275.1734 0116611 173.6473 218.0598  2.00554450163205
NAVSTAR 56 (USA 180)    
1 28474U 04045A   26180.77954238 -.00000091  00000+0  00000+0 0  9999
2 28474  55.1283 324.3893 0169949 316.7070  53.1426  2.00556622158682
NAVSTAR 57 (USA 183)    
1 28874U 05038A   26180.87223363 -.00000019  00000+0  00000+0 0  9995
2 28874  54.8676 272.6653 0128048 296.2601 104.6686  2.00564942152097
INMARSAT 4-F2           
1 28899U 05044A   26181.47267169 -.00000253  00000+0  00000+0 0  9998
2 28899   5.1102  43.6668 0003301  44.9568 143.5693  1.00270981 75655
NAVSTAR 58 (USA 190)    
1 29486U 06042A   26181.45855698  .00000032  00000+0  00000+0 0  9992
2 29486  54.7122 150.8121 0106862  54.7698 308.2092  2.00569164144660
NAVSTAR 59 (USA 192)    
1 29601U 06052A   26181.38177714  .00000071  00000+0  00000+0 0  9993
2 29601  54.9336 213.4830 0084904  90.9296 270.1200  2.00558972143672
NAVSTAR 60 (USA 196)    
1 32260U 07047A   26181.68704795 -.00000037  00000+0  00000+0 0  9994
2 32260  54.1048  79.5092 0167277  87.6739 274.2770  2.00554732137085
COSMOS 2433 [GLONASS-M] 
1 32275U 07052A   26181.52409382 -.00000061  00000+0  00000+0 0  9990
2 32275  65.5689 315.4845 0002983 197.6457 162.3384  2.13104304145343
COSMOS 2432 [GLONASS-M] 
1 32276U 07052B   26178.97701435 -.00000078  00000+0  00000+0 0  9998
2 32276  65.5864 315.6977 0007480 327.9632 181.8198  2.13103255145317
NAVSTAR 61 (USA 199)    
1 32384U 07062A   26181.75086794 -.00000017  00000+0  00000+0 0  9996
2 32384  55.0207 273.6071 0035901 166.5429   7.1566  2.00560986135783
COSMOS 2434 [GLONASS-M] 
1 32393U 07065A   26181.43259470  .00000081  00000+0  00000+0 0  9997
2 32393  64.3195 191.4691 0001269 327.2490 212.3156  2.13101392144052
COSMOS 2436 [GLONASS-M] 
1 32395U 07065C   26181.60164814  .00000080  00000+0  00000+0 0  9994
2 32395  64.3275 191.5357 0017289 353.5646  87.9496  2.13100248144015
NAVSTAR 62 (USA 201)    
1 32711U 08012A   26180.59999220  .00000027  00000+0  00000+0 0  9994
2 32711  54.4988 149.4290 0211470 247.9851 109.7207  2.00572816134009
NAVSTAR 64 (USA 206)    
1 35752U 09043A   26181.60118499 -.00000067  00000+0  00000+0 0  9996
2 35752  56.2187  26.9253 0053814  83.7814 287.9336  2.00553729123638
COSMOS 2456 [GLONASS-M] 
1 36111U 09070A   26180.74919927 -.00000027  00000+0  00000+0 0  9991
2 36111  65.0182  70.5436 0003881 338.2816 195.2198  2.13103743128697
COSMOS 2457 [GLONASS-M] 
1 36112U 09070B   26181.46556956 -.00000021  00000+0  00000+0 0  9995
2 36112  65.0045  70.3622 0003498 122.8939   7.4731  2.13101296128719
COSMOS 2460 [GLONASS-M] 
1 36402U 10007C   26181.05593492 -.00000064  00000+0  00000+0 0  9997
2 36402  65.4124 314.0307 0001950 124.3103  53.7611  2.13101843127002
NAVSTAR 65 (USA 213)    
1 36585U 10022A   26181.48477703  .00000071  00000+0  00000+0 0  9996
2 36585  54.2696 208.0264 0126481  66.1308 340.7352  2.00563141117868
BEIDOU-2 IGSO-1         
1 36828U 10036A   26181.37475325 -.00000082  00000+0  00000+0 0  9990
2 36828  54.3057 162.8407 0058827 225.1163 132.8817  1.00268449 58222
BEIDOU-2 G4             
1 37210U 10057A   26181.63694215 -.00000105  00000+0  00000+0 0  9995
2 37210   3.6793  68.8718 0004811 190.1200  48.9890  1.00271585 57423
BEIDOU-2 IGSO-2         
1 37256U 10068A   26181.67923229 -.00000187  00000+0  00000+0 0  9991
2 37256  47.5224 271.6646 0056566 213.8845 145.9362  1.00279341 56930
BEIDOU-2 IGSO-3         
1 37384U 11013A   26180.53855913 -.00000164  00000+0  00000+0 0  9997
2 37384  62.4244  40.0349 0035201 183.8161 354.9022  1.00265262 55782
GSAT-8                  
1 37605U 11022A   26181.45483030  .00000093  00000+0  00000+0 0  9992
2 37605   2.1638  81.6735 0001681 178.4527 237.2308  1.00274337 53351
BEIDOU-2 IGSO-4         
1 37763U 11038A   26181.72414455  .00000016  00000+0  00000+0 0  9994
2 37763  54.6038 165.5522 0159646 231.3920 236.4479  1.00282941 54787
GSAT0101 (GALILEO-PFM)  
1 37846U 11060A   26179.58009359 -.00000091  00000+0  00000+0 0  9999
2 37846  56.9903 341.4525 0002760  57.0252 302.9933  1.70475892 91318
GSAT0102 (GALILEO-FM2)  
1 37847U 11060B   26181.84072557 -.00000083  00000+0  00000+0 0  9993
2 37847  56.9905 341.3918 0002678  14.0310 339.0215  1.70476123 91358
COSMOS 2476 [GLONASS-M] 
1 37867U 11064A   26181.34836512 -.00000021  00000+0  00000+0 0  9995
2 37867  65.2771  72.4268 0022333 237.2427 304.2480  2.13103942114046
COSMOS 2477 [GLONASS-M] 
1 37868U 11064B   26181.57892149 -.00000019  00000+0  00000+0 0  9996
2 37868  65.2838  72.4985 0019406 238.4488 300.2195  2.13103152114046
COSMOS 2475 [GLONASS-M] 
1 37869U 11064C   26179.32228542 -.00000040  00000+0  00000+0 0  9991
2 37869  65.2894  72.5963 0025219 252.3581 310.1656  2.13101903114004
